{
  "type": "FeatureCollection",
  "features": [
    {
      "type": "Feature",
      "properties": {
        "norad_id": 28054,
        "name": "DMSP 5D-3 F16 (USA 172)",
        "group": "weather",
        "lat": 37.643671509014304,
        "lon": -172.22408467337152,
        "alt_km": 846.197580490797,
        "timestamp": "2025-12-09T07:41:32.844545+00:00",
        "meta_object_name": "DMSP 5D-3 F16 (USA 172)",
        "meta_object_id": "2003-048A",
        "meta_epoch": "2025-12-08T22:49:21.991008",
        "meta_mean_motion": 14.14422062,
        "meta_eccentricity": 0.00066415,
        "meta_inclination": 99.0048,
        "meta_ra_of_asc_node": 0.3781,
        "meta_arg_of_pericenter": 332.6225,
        "meta_mean_anomaly": 88.3046,
        "meta_ephemeris_type": 0,
        "meta_classification_type": "U",
        "meta_norad_cat_id": 28054,
        "meta_element_set_no": 999,
        "meta_rev_at_epoch": 14259,
        "meta_bstar": 0.00013294748,
        "meta_mean_motion_dot": 2.09e-06,
        "meta_mean_motion_ddot": 0,
        "tle_line1": "1 28054U 03048A   25342.95094897  .00000209  00000+0  13295-3 0  9994",
        "tle_line2": "2 28054  99.0048   0.3781 0006641 332.6225  88.3046 14.14422062142596"
      },
      "geometry": {
        "type": "Point",
        "coordinates": [
          -172.22408467337152,
          37.643671509014304
        ]
      }
    },
    {
      "type": "Feature",
      "properties": {
        "norad_id": 28912,
        "name": "METEOSAT-9 (MSG-2)",
        "group": "weather",
        "lat": -0.5308330870254627,
        "lon": -120.70843549821052,
        "alt_km": 35769.29531241002,
        "timestamp": "2025-12-09T07:41:32.844596+00:00",
        "meta_object_name": "METEOSAT-9 (MSG-2)",
        "meta_object_id": "2005-049B",
        "meta_epoch": "2025-12-08T20:40:05.249568",
        "meta_mean_motion": 1.00274262,
        "meta_eccentricity": 0.00038396,
        "meta_inclination": 8.931,
        "meta_ra_of_asc_node": 56.0124,
        "meta_arg_of_pericenter": 190.0622,
        "meta_mean_anomaly": 187.4345,
        "meta_ephemeris_type": 0,
        "meta_classification_type": "U",
        "meta_norad_cat_id": 28912,
        "meta_element_set_no": 999,
        "meta_rev_at_epoch": 509,
        "meta_bstar": 0,
        "meta_mean_motion_dot": 1.23e-06,
        "meta_mean_motion_ddot": 0,
        "tle_line1": "1 28912U 05049B   25342.86117187  .00000123  00000+0  00000+0 0  9999",
        "tle_line2": "2 28912   8.9310  56.0124 0003839 190.0622 187.4345  1.00274262  5096"
      },
      "geometry": {
        "type": "Point",
        "coordinates": [
          -120.70843549821052,
          -0.5308330870254627
        ]
      }
    },
    {
      "type": "Feature",
      "properties": {
        "norad_id": 29522,
        "name": "DMSP 5D-3 F17 (USA 191)",
        "group": "weather",
        "lat": 73.54790976984654,
        "lon": -42.61115243469078,
        "alt_km": 841.799216524727,
        "timestamp": "2025-12-09T07:41:32.844613+00:00",
        "meta_object_name": "DMSP 5D-3 F17 (USA 191)",
        "meta_object_id": "2006-050A",
        "meta_epoch": "2025-12-08T22:50:53.315808",
        "meta_mean_motion": 14.14916948,
        "meta_eccentricity": 0.00092765,
        "meta_inclination": 98.7393,
        "meta_ra_of_asc_node": 348.42,
        "meta_arg_of_pericenter": 236.5892,
        "meta_mean_anomaly": 123.4395,
        "meta_ephemeris_type": 0,
        "meta_classification_type": "U",
        "meta_norad_cat_id": 29522,
        "meta_element_set_no": 999,
        "meta_rev_at_epoch": 98551,
        "meta_bstar": 0.00015613481,
        "meta_mean_motion_dot": 2.58e-06,
        "meta_mean_motion_ddot": 0,
        "tle_line1": "1 29522U 06050A   25342.95200597  .00000258  00000+0  15613-3 0  9997",
        "tle_line2": "2 29522  98.7393 348.4200 0009276 236.5892 123.4395 14.14916948985513"
      },
      "geometry": {
        "type": "Point",
        "coordinates": [
          -42.61115243469078,
          73.54790976984654
        ]
      }
    },
    {
      "type": "Feature",
      "properties": {
        "norad_id": 32958,
        "name": "FENGYUN 3A",
        "group": "weather",
        "lat": 80.57740072713263,
        "lon": 169.75082723033987,
        "alt_km": 823.4870313829415,
        "timestamp": "2025-12-09T07:41:32.844627+00:00",
        "meta_object_name": "FENGYUN 3A",
        "meta_object_id": "2008-026A",
        "meta_epoch": "2025-12-08T19:24:39.976992",
        "meta_mean_motion": 14.19512827,
        "meta_eccentricity": 0.00080792,
        "meta_inclination": 98.6693,
        "meta_ra_of_asc_node": 282.4185,
        "meta_arg_of_pericenter": 322.7735,
        "meta_mean_anomaly": 37.2881,
        "meta_ephemeris_type": 0,
        "meta_classification_type": "U",
        "meta_norad_cat_id": 32958,
        "meta_element_set_no": 999,
        "meta_rev_at_epoch": 90839,
        "meta_bstar": 0.00014393123,
        "meta_mean_motion_dot": 2.6e-06,
        "meta_mean_motion_ddot": 0,
        "tle_line1": "1 32958U 08026A   25342.80879603  .00000260  00000+0  14393-3 0  9990",
        "tle_line2": "2 32958  98.6693 282.4185 0008079 322.7735  37.2881 14.19512827908391"
      },
      "geometry": {
        "type": "Point",
        "coordinates": [
          169.75082723033987,
          80.57740072713263
        ]
      }
    },
    {
      "type": "Feature",
      "properties": {
        "norad_id": 35491,
        "name": "GOES 14",
        "group": "weather",
        "lat": 0.01951827386690785,
        "lon": 85.37657152689546,
        "alt_km": 35801.25160961818,
        "timestamp": "2025-12-09T07:41:32.844642+00:00",
        "meta_object_name": "GOES 14",
        "meta_object_id": "2009-033A",
        "meta_epoch": "2025-12-08T21:38:55.260672",
        "meta_mean_motion": 1.00273129,
        "meta_eccentricity": 0.00040642,
        "meta_inclination": 1.1894,
        "meta_ra_of_asc_node": 85.4504,
        "meta_arg_of_pericenter": 154.513,
        "meta_mean_anomaly": 54.3645,
        "meta_ephemeris_type": 0,
        "meta_classification_type": "U",
        "meta_norad_cat_id": 35491,
        "meta_element_set_no": 999,
        "meta_rev_at_epoch": 468,
        "meta_bstar": 0,
        "meta_mean_motion_dot": -6.6e-07,
        "meta_mean_motion_ddot": 0,
        "tle_line1": "1 35491U 09033A   25342.90202848 -.00000066  00000+0  00000+0 0  9997",
        "tle_line2": "2 35491   1.1894  85.4504 0004064 154.5130  54.3645  1.00273129  4686"
      },
      "geometry": {
        "type": "Point",
        "coordinates": [
          85.37657152689546,
          0.01951827386690785
        ]
      }
    },
    {
      "type": "Feature",
      "properties": {
        "norad_id": 35951,
        "name": "DMSP 5D-3 F18 (USA 210)",
        "group": "weather",
        "lat": -53.93587808393561,
        "lon": -27.860855121308603,
        "alt_km": 855.2521839108058,
        "timestamp": "2025-12-09T07:41:32.844654+00:00",
        "meta_object_name": "DMSP 5D-3 F18 (USA 210)",
        "meta_object_id": "2009-057A",
        "meta_epoch": "2025-12-08T21:46:03.281088",
        "meta_mean_motion": 14.14765421,
        "meta_eccentricity": 0.00121052,
        "meta_inclination": 98.883,
        "meta_ra_of_asc_node": 319.327,
        "meta_arg_of_pericenter": 72.7402,
        "meta_mean_anomaly": 287.5094,
        "meta_ephemeris_type": 0,
        "meta_classification_type": "U",
        "meta_norad_cat_id": 35951,
        "meta_element_set_no": 999,
        "meta_rev_at_epoch": 83268,
        "meta_bstar": 0.00022833798,
        "meta_mean_motion_dot": 3.96e-06,
        "meta_mean_motion_ddot": 0,
        "tle_line1": "1 35951U 09057A   25342.90698242  .00000396  00000+0  22834-3 0  9999",
        "tle_line2": "2 35951  98.8830 319.3270 0012105  72.7402 287.5094 14.14765421832684"
      },
      "geometry": {
        "type": "Point",
        "coordinates": [
          -27.860855121308603,
          -53.93587808393561
        ]
      }
    },
    {
      "type": "Feature",
      "properties": {
        "norad_id": 36411,
        "name": "EWS-G2 (GOES 15)",
        "group": "weather",
        "lat": 0.13130482640897911,
        "lon": -104.86944794982158,
        "alt_km": 35761.75115937188,
        "timestamp": "2025-12-09T07:41:32.844667+00:00",
        "meta_object_name": "EWS-G2 (GOES 15)",
        "meta_object_id": "2010-008A",
        "meta_epoch": "2025-12-08T23:44:14.551584",
        "meta_mean_motion": 1.00268844,
        "meta_eccentricity": 0.00059465,
        "meta_inclination": 0.8047,
        "meta_ra_of_asc_node": 86.0595,
        "meta_arg_of_pericenter": 173.1346,
        "meta_mean_anomaly": 236.2931,
        "meta_ephemeris_type": 0,
        "meta_classification_type": "U",
        "meta_norad_cat_id": 36411,
        "meta_element_set_no": 999,
        "meta_rev_at_epoch": 5773,
        "meta_bstar": 0,
        "meta_mean_motion_dot": 4e-07,
        "meta_mean_motion_ddot": 0,
        "tle_line1": "1 36411U 10008A   25342.98905731  .00000040  00000+0  00000+0 0  9994",
        "tle_line2": "2 36411   0.8047  86.0595 0005946 173.1346 236.2931  1.00268844 57739"
      },
      "geometry": {
        "type": "Point",
        "coordinates": [
          -104.86944794982158,
          0.13130482640897911
        ]
      }
    }
  ]
}